IRIDIUM 171             
1 43929U 19002H   23238.98271603  .00000110  00000+0  32069-4 0  9998
2 43929  86.3933  62.2262 0001984  89.1298 271.0125 14.34216113242013
IRIDIUM 170             
1 43930U 19002J   23239.00823985  .00000424  00000+0  63407-4 0  9998
2 43930  86.6056  62.0794 0002426  89.7295 270.4200 14.72255592248421
IRIDIUM 167             
1 43931U 19002K   23239.04614017  .00000161  00000+0  50456-4 0  9995
2 43931  86.3925  62.0200 0002035  87.8227 272.3202 14.34215625242020
IRIDIUM 181             
1 56726U 23068S   23239.16509709  .00000384  00000+0  10752-3 0  9993
2 56726  86.8592 101.4338 0003074  61.8227 298.3285 14.43580073 14575
IRIDIUM 177             
1 56727U 23068T   23239.14410298  .00001412  00000+0  18238-3 0  9996
2 56727  86.1960  95.4451 0002492  79.1447 281.0054 14.80222640 14730
IRIDIUM 174             
1 56728U 23068U   23239.13867420  .00001446  00000+0  18676-3 0  9992
2 56728  86.1947  95.5304 0002328  91.9958 268.1529 14.80227734 14733
IRIDIUM 178             
1 56729U 23068V   23239.13281453  .00001421  00000+0  18360-3 0  9992
2 56729  86.5745  99.0198 0002218  91.3160 268.8315 14.80226982 14735
IRIDIUM 179             
1 56730U 23068W   23239.12739906  .00001333  00000+0  17206-3 0  9994
2 56730  86.6753  99.4422 0002146  89.1019 271.0449 14.80224698 14735
